     3.03           N                   I                   RINEX VERSION / TYPE
Convert 2.6.7       NovAtel             20220606 075817 UTC PGM / RUN BY / DATE 
                                                            COMMENT             
                                                            END OF HEADER       
